STARLINK-2466           
1 48125U 21027AK  26068.53027107  .00010076  00000+0  35181-3 0  9993
2 48125  53.1608 166.0309 0001437  88.3719 271.7447 15.30205487272481
TOMORROW-S1             
1 60479U 24149M   26068.72470524  .00008620  00000+0  28856-3 0  9996
2 60479  97.3791 149.6044 0001819 207.2040 152.9106 15.31198362 86867
